{"fetched_at":"2026-05-15T10:25:14Z","count":15943,"tles":[{"name":"STARLINK-11144 [DTC]","line1":"1 59955U 24107L   26134.68287344 -.00000752  00000+0 -13510-5 0  9995","line2":"2 59955  53.1608 285.7472 0000918  93.9470 266.1653 15.69701829112576","category":"Starlink"},{"name":"STARLINK-32417","line1":"1 61673U 24193N   26134.42695148 -.00000198  00000+0  54566-5 0  9996","line2":"2 61673  53.1598 145.4965 0001239  81.5320 278.5821 15.30191049 86598","category":"Starlink"},{"name":"STARLINK-36146","line1":"1 67426U 26005Y   26134.61003970  .00009534  00000+0  35544-3 0  9994","line2":"2 67426  42.9982 226.0837 0001439 277.9916  82.0773 15.27589311 18768","category":"Starlink"},{"name":"FENGYUN 1C DEB","line1":"1 31931U 99025CMG 26104.54498429  .00000355  00000+0  40058-3 0  9992","line2":"2 31931  97.8240  32.8380 0422596 310.4766  46.0242 13.42828697668703","category":"Weather"},{"name":"STARLINK-30392","line1":"1 57855U 23141R   26133.29559151 -.00000315  00000+0  14891-5 0  9990","line2":"2 57855  53.1606 343.7400 0001067  99.6846 260.4276 15.30189359150221","category":"Starlink"},{"name":"INTELSAT 36 (IS-36)","line1":"1 41747U 16053A   26134.81974278 -.00000011  00000+0  00000+0 0  9991","line2":"2 41747   0.0165   0.3749 0001436 326.0707 269.7327  1.00270246 35623","category":"Other"},{"name":"STARLINK-4785","line1":"1 53865U 22114AZ  23362.11821663  .00004167  00000+0  27968-3 0  9993","line2":"2 53865  53.2172 286.8031 0001458  87.1757 272.9402 15.08848673 71419","category":"Starlink"},{"name":"STARLINK-32782","line1":"1 62821U 25018R   26134.61458894  .00012744  00000+0  44153-3 0  9993","line2":"2 62821  53.1607   3.2525 0001518  83.9319 276.1855 15.30208945 73278","category":"Starlink"},{"name":"CAPELLA-20 (ACADIA-10)","line1":"1 68485U 26067BX  26134.83671416  .00004841  00000+0  48116-3 0  9993","line2":"2 68485  97.7561  93.6225 0003361  71.7259 288.4325 14.92147689  6750","category":"Other"},{"name":"FENGYUN 1C DEB","line1":"1 35165U 99025DMV 26104.53339985  .00002292  00000+0  81413-3 0  9997","line2":"2 35165  98.8713 204.7168 0020564  65.8414 294.4917 14.35303024914815","category":"Weather"},{"name":"FLOCK 4X-24","line1":"1 51056U 22002CA  23361.77858417  .00027615  00000+0  79496-3 0  9993","line2":"2 51056  97.4128  70.3035 0003952 261.8495  98.2301 15.35727805108467","category":"Other"},{"name":"COSMOS 2575","line1":"1 58929U 24026A   26134.97129887  .00014455  00000+0  96583-4 0  9997","line2":"2 58929  96.6234  20.5139 0003462  93.9965 266.1698 15.75402828130409","category":"Other"},{"name":"STARLINK-35108","line1":"1 65738U 25216E   26134.73212949  .00001620  00000+0  66902-4 0  9993","line2":"2 65738  53.1599  26.2291 0001203  90.4161 269.6978 15.30155298 36704","category":"Starlink"},{"name":"SUZAKU (ASTRO-EII)","line1":"1 28773U 05025A   25005.15908413  .07119502 -34455-5  81708-3 0  9991","line2":"2 28773  31.3669 169.3333 0002388 343.8481 175.4418 16.35702245 78669","category":"Other"},{"name":"STARLINK-1224","line1":"1 45186U 20012J   23362.44737362  .00001330  00000+0  10818-3 0  9998","line2":"2 45186  53.0548  48.0274 0001397  95.6238 264.4910 15.06390807213279","category":"Starlink"},{"name":"STARLINK-5619","line1":"1 55755U 23028Q   26038.70950157  .13192168  45151-5  17907-3 0  9994","line2":"2 55755  69.9796 302.7164 0007925 229.3919 130.6628 16.48838805161977","category":"Starlink"},{"name":"FENGYUN 1C DEB","line1":"1 31030U 99025BDY 26104.45780108  .00001093  00000+0  49126-3 0  9995","line2":"2 31030  98.7498 170.9216 0028645  89.6103 286.2421 14.24226313984512","category":"Weather"},{"name":"STARLINK-2135","line1":"1 47408U 21005BM  26134.89603807 -.00000110  00000+0  83977-5 0  9999","line2":"2 47408  53.1611  89.2300 0001164  88.9638 271.1496 15.30201247293524","category":"Starlink"},{"name":"STARLINK-6125","line1":"1 57114U 23090P   26134.64717945  .00001085  00000+0  50147-4 0  9995","line2":"2 57114  43.0023 268.7304 0002060 277.6165  82.4452 15.26738454160427","category":"Starlink"},{"name":"COSMOS 2481","line1":"1 38733U 12041A   26134.87831874  .00000163  00000+0  11083-2 0  9998","line2":"2 38733  82.4713  95.9931 0019245 145.0921 215.1424 12.42434719625616","category":"Other"},{"name":"STARLINK-4355","line1":"1 53048U 22077F   26134.44522204  .00000943  00000+0  69439-4 0  9997","line2":"2 53048  97.4918 315.8655 0001419  91.5400 268.5989 15.05648201210874","category":"Starlink"},{"name":"STARLINK-11151 [DTC]","line1":"1 60049U 24112M   26133.50131014  .00000004  00000+0  48818-5 0  9996","line2":"2 60049  53.1568 306.5302 0000584  46.6276 313.4791 15.69707079111165","category":"Starlink"},{"name":"STARLINK-36557","line1":"1 67500U 26012H   26134.87481716  .00019958  00000+0  73245-3 0  9992","line2":"2 67500  43.0085 300.6603 0003955 277.0278  83.0124 15.27592027 17885","category":"Starlink"},{"name":"FENGYUN 1C DEB","line1":"1 32118U 99025CRL 23162.57990463  .01765384  00000+0  27700-1 0  9997","line2":"2 32118 102.3740  85.0497 0027294 144.8649 215.4390 15.50033435851059","category":"Weather"},{"name":"ARIANE 3 DEB","line1":"1 48347U 84081G   26104.18072200  .00000075  00000+0  00000+0 0  9990","line2":"2 48347   6.1216  18.1784 7090504 328.8555   4.0704  2.08083359 94314","category":"Other"},{"name":"HULIANWANG DIGUI-102","line1":"1 66418U 25258G   26134.50823800 -.00000103  00000+0  45775-4 0  9995","line2":"2 66418  50.0020  56.2220 0000926  11.9554 348.1340 13.29318937 25256","category":"Other"},{"name":"FENGYUN 1C DEB","line1":"1 31292U 99025BPA 23178.36656742  .00018680  00000+0  60024-2 0  9998","line2":"2 31292  99.0694 320.6043 0044937 135.9270 224.5511 14.38819985839947","category":"Weather"},{"name":"STARLINK-2032","line1":"1 47649U 21012AF  26134.74352135  .00092599  00000+0  50803-3 0  9994","line2":"2 47649  53.0372  46.2811 0001842 331.3418  28.7501 15.79051450291194","category":"Starlink"},{"name":"STARLINK-32154","line1":"1 60276U 24131X   26134.33674472  .00000217  00000+0  19449-4 0  9994","line2":"2 60276  53.1597 107.2043 0001286  80.2204 279.8942 15.30196796101777","category":"Starlink"},{"name":"STARLINK-11687 [DTC]","line1":"1 63555U 25075H   26089.84433812  .08477027  87210-5  48435-2 0  9995","line2":"2 63555  42.9837  19.2096 0012262 214.8378 145.1705 16.17893700 56659","category":"Starlink"},{"name":"STARLINK-6131","line1":"1 76131C 23090G   23185.64562500 -.00982060  00000-0 -60577-2 0  1850","line2":"2 76131  42.9993 215.1130 0001278 260.6315 353.1269 15.77165532    12","category":"Starlink"},{"name":"HIMAWARI-4 AKM","line1":"1 20317U 89070C   26104.56991610 -.00000144  00000+0  00000+0 0  9995","line2":"2 20317  12.6544 337.5902 0242464  61.5920 286.7230  0.98761541 46022","category":"Other"},{"name":"YAOGAN-30 03A","line1":"1 43028U 17075A   26134.92906226  .00001552  00000+0  11631-3 0  9996","line2":"2 43028  34.9937 113.2529 0001673 348.2316  11.8353 15.02639708462241","category":"Other"},{"name":"STARLINK-30616","line1":"1 58105U 23161J   26134.59138987 -.00000052  00000+0  10377-4 0  9997","line2":"2 58105  53.1586 206.3241 0001131  64.0647 296.0470 15.30186459144683","category":"Starlink"},{"name":"STARLINK-11287 [DTC]","line1":"1 60998U 24158J   26134.52862985 -.00000219  00000+0  30485-5 0  9990","line2":"2 60998  53.1599 316.8278 0000710  92.1641 267.9459 15.69723124 97921","category":"Starlink"},{"name":"STARLINK-36223","line1":"1 67126U 25299AA  26134.44294863  .00013633  00000+0  50374-3 0  9992","line2":"2 67126  43.0053 157.5338 0003389 276.8216  83.2250 15.27595199 23172","category":"Starlink"},{"name":"STARLINK-5245","line1":"1 54168U 22141M   26134.11711192 -.00000427  00000+0 -87252-5 0  9996","line2":"2 54168  53.2179  70.4971 0001499  90.0710 270.0454 15.08833164195737","category":"Starlink"},{"name":"STARLINK-2758","line1":"1 48638U 21044A   23361.66223593  .00007264  00000+0  50594-3 0  9995","line2":"2 48638  53.0536 121.5507 0001596  79.2180 280.8989 15.06407954142745","category":"Starlink"},{"name":"HULIANWANG DIGUI-30","line1":"1 64283U 25121A   26134.92689561  .00000039  00000+0  57337-4 0  9996","line2":"2 64283  86.5018  24.7828 0001630  84.5102 275.6218 13.24409505 45759","category":"Other"},{"name":"FENGYUN 1C DEB","line1":"1 29946U 99025JU  26104.93429490  .00000231  00000+0  15574-3 0  9998","line2":"2 29946  98.7903  98.9549 0080625 356.3833  35.5271 14.08372518987819","category":"Weather"},{"name":"STARLINK-1415","line1":"1 45691U 20035AL  23362.47225845  .00001704  00000+0  13332-3 0  9994","line2":"2 45691  53.0541  57.9141 0001197  78.8205 281.2918 15.06386753197967","category":"Starlink"},{"name":"STARLINK-31382","line1":"1 59184U 24045G   26133.34467753 -.00000047  00000+0  78304-5 0  9994","line2":"2 59184  43.0022  87.0525 0001313 268.0352  92.0349 15.27577466123059","category":"Starlink"},{"name":"STARLINK-32729","line1":"1 62497U 25003L   26134.66129497  .00011758  00000+0  43594-3 0  9997","line2":"2 62497  43.0062 276.1760 0001862 278.3113  81.7528 15.27592792 76762","category":"Starlink"},{"name":"STARLINK-37102","line1":"1 68183U 26050S   26134.25118956  .00024246  00000+0  62977-3 0  9993","line2":"2 68183  53.1595 322.7415 0000910 125.4640 234.6450 15.38852134 10715","category":"Starlink"},{"name":"STARLINK-6090","line1":"1 56095U 23046C   26134.39508014  .00015067  00000+0  55675-3 0  9995","line2":"2 56095  43.0040 150.1986 0001299 264.9439  95.1264 15.27530389172084","category":"Starlink"},{"name":"JILIN-1 GAOFEN 03D17","line1":"1 51838U 22019Q   25235.96758150  .12398748  25816-5  19713-3 0  9990","line2":"2 51838  97.3864 330.3434 0015500 265.4007  94.5526 16.47225771194567","category":"Other"},{"name":"STARLINK-34883","line1":"1 65426U 25192Y   26134.69649808  .00021863  00000+0  74789-3 0  9995","line2":"2 65426  53.1593 285.5057 0000688  87.1484 272.9596 15.30209480 39483","category":"Starlink"}]}